; FF identification trajectory
; Input units: meters in trajectory_FF.txt
; Output units: millimeters (G21). Coordinates scaled by 1000.
G21
G90
G94
F1000

G0 X0.00 Y0.00 Z0.00
G4 S1.0
G0 X0.00 Y0.00 Z1000.00
G4 S0.5

G0 X450.00 Y0.00 Z1000.00
G0 X-450.00 Y0.00 Z1000.00
G0 X350.00 Y0.00 Z1000.00
G0 X-350.00 Y0.00 Z1000.00
G0 X500.00 Y0.00 Z1000.00
G0 X-500.00 Y0.00 Z1000.00
G0 X0.00 Y0.00 Z1000.00
G4 S0.3

G0 X0.00 Y450.00 Z1000.00
G0 X0.00 Y-450.00 Z1000.00
G0 X0.00 Y350.00 Z1000.00
G0 X0.00 Y-350.00 Z1000.00
G0 X0.00 Y500.00 Z1000.00
G0 X0.00 Y-500.00 Z1000.00
G0 X0.00 Y0.00 Z1000.00
G4 S0.3

G0 X0.00 Y0.00 Z800.00
G0 X0.00 Y0.00 Z1100.00
G0 X0.00 Y0.00 Z900.00
G0 X0.00 Y0.00 Z1050.00
G0 X0.00 Y0.00 Z850.00
G0 X0.00 Y0.00 Z1100.00
G0 X0.00 Y0.00 Z1000.00
G4 S0.3

G0 X450.00 Y450.00 Z1050.00
G0 X-450.00 Y-450.00 Z950.00
G0 X450.00 Y-450.00 Z1100.00
G0 X-450.00 Y450.00 Z900.00
G0 X500.00 Y200.00 Z1050.00
G0 X-500.00 Y-200.00 Z950.00
G0 X200.00 Y-500.00 Z1100.00
G0 X-200.00 Y500.00 Z900.00
G0 X0.00 Y0.00 Z1000.00
G4 S0.3

G0 X500.00 Y500.00 Z1100.00
G0 X500.00 Y-500.00 Z900.00
G0 X-500.00 Y-500.00 Z1100.00
G0 X-500.00 Y500.00 Z900.00
G0 X500.00 Y500.00 Z1050.00
G0 X-500.00 Y500.00 Z1000.00
G0 X500.00 Y-500.00 Z950.00
G0 X-500.00 Y-500.00 Z1100.00
G0 X0.00 Y0.00 Z1000.00
G4 S0.5

G0 X0.00 Y0.00 Z0.00
G4 S2.0

M2
